[{"OBJECT_NAME":"STARLINK-2195","OBJECT_ID":"2021-017BC","EPOCH":"2026-03-09T15:30:48.908160","MEAN_MOTION":15.301962,"ECCENTRICITY":0.0001569,"INCLINATION":53.1613,"RA_OF_ASC_NODE":217.4753,"ARG_OF_PERICENTER":60.3048,"MEAN_ANOMALY":299.8109,"EPHEMERIS_TYPE":0,"CLASSIFICATION_TYPE":"U","NORAD_CAT_ID":47772,"ELEMENT_SET_NO":999,"REV_AT_EPOCH":27765,"BSTAR":7.8929e-5,"MEAN_MOTION_DOT":1.979e-5,"MEAN_MOTION_DDOT":0},{"OBJECT_NAME":"HYPERFIELD-1A","OBJECT_ID":"2024-149CY","EPOCH":"2026-03-09T18:21:25.814304","MEAN_MOTION":15.29681349,"ECCENTRICITY":0.00038648,"INCLINATION":97.3842,"RA_OF_ASC_NODE":149.5066,"ARG_OF_PERICENTER":313.7844,"MEAN_ANOMALY":46.3076,"EPHEMERIS_TYPE":0,"CLASSIFICATION_TYPE":"U","NORAD_CAT_ID":60562,"ELEMENT_SET_NO":999,"REV_AT_EPOCH":8683,"BSTAR":0.00030052114,"MEAN_MOTION_DOT":8.569e-5,"MEAN_MOTION_DDOT":0}]
